From: horizons@ssd.jpl.nasa.gov (Horizons Ephemeris System)
Subject: [Horizons] SMALL BODY #C(V30@399)_T(Skiff (C/2007 H2)) (1/1)
Date: February 8, 2021 at 4:50:15 PM PST

Automated mail xmit by MAIL_REQUEST, PID= 12314 Mon Feb  8 16:50:15 2021
++++++++++++++++++++++++++++++++ (part 1 of 1)  +++++++++++++++++++++++++++++++
*******************************************************************************
JPL/HORIZONS                  Skiff (C/2007 H2)            2021-Feb-08 16:50:15
Rec #:90003646 (+COV) Soln.date: 2014-Jun-13_19:43:55      # obs: 109 (30 days)

IAU76/J2000 helio. ecliptic osc. elements (au, days, deg., period=Julian yrs):

 EPOCH=  2454214.5 ! 2007-Apr-24.0000000 (TDB)    RMSW= n.a.
  EC= .9716901175219284   QR= 1.410457315048366   TP= 2454148.5548588941
  OM= 203.7718277548188   W= 319.3027012551166    IN= 52.19103063032247
  A= 49.82208301786072    MA= .1848221654015637   ADIST= 98.23370872067308
  PER= 351.67462734712    N= .002802665           ANGMOM= .02868671
  DAN= 1.6013             DDN= 10.5621            L= 175.9718748
  B= -31.0086792          MOID= .53970999         TP= 2007-Feb-17.0548588941

Comet physical (GM= km^3/s^2; RAD= km):
  GM= n.a.                RAD= n.a.
  M1=  15.9     M2=  19.1     k1=  17.    k2=  5.      PHCOF=  .030

COMET comments 
1: soln ref.= JPL#9, data arc: 2007-04-19 to 2007-05-19
2: k1=17., k2=5., phase coef.=0.03;
*******************************************************************************


*******************************************************************************
Ephemeris / MAIL_REQUEST Mon Feb  8 16:50:15 2021 Pasadena, USA  / Horizons
*******************************************************************************
Target body name: Skiff (C/2007 H2)               {source: JPL#9}
Center body name: Earth (399)                     {source: DE431}
Center-site name: Heaven on Earth Observatory, Mayhill
*******************************************************************************
Start time      : A.D. 1990-Jan-01 00:00:00.0000 TDB
Stop  time      : A.D. 2020-Dec-31 00:00:00.0000 TDB
Step-size       : 120 steps
*******************************************************************************
Center geodetic : 254.471000,32.9035384,2.2360688 {E-lon(deg),Lat(deg),Alt(km)}
Center cylindric: 254.471000,5362.17112,3446.1964 {E-lon(deg),Dxy(km),Dz(km)}
Center pole/equ : High-precision EOP model        {East-longitude positive}
Center radii    : 6378.1 x 6378.1 x 6356.8 km     {Equator, meridian, pole}    
Small perturbers: Yes                             {source: SB431-N16}
Output units    : AU-D
Output type     : GEOMETRIC cartesian states
Output format   : 6 (LT, range, and range-rate)
EOP file        : eop.210208.p210502
EOP coverage    : DATA-BASED 1962-JAN-20 TO 2021-FEB-08. PREDICTS-> 2021-MAY-01
Reference frame : Ecliptic of J2000.0
*******************************************************************************
Initial IAU76/J2000 heliocentric ecliptic osculating elements (au, days, deg.):
 EPOCH=  2454214.5 ! 2007-Apr-24.0000000 (TDB)    RMSW= n.a.                  
  EC= .9716901175219284   QR= 1.410457315048366   TP= 2454148.5548588941      
  OM= 203.7718277548188   W= 319.3027012551166    IN= 52.19103063032247       
 Equivalent ICRF heliocentric equatorial cartesian coordinates (au, au/d):
  X=-1.476917131108475E+00  Y=-7.998555204018559E-01  Z=-1.585791320639314E-01
 VX=-3.529612866512571E-04 VY=-1.670197244917140E-02 VZ= 8.110524338935807E-03
Comet physical (GM= km^3/s^2; RAD= km):                                        
  GM= n.a.                RAD= n.a.                                           
  M1=  15.9     M2=  19.1     k1=  17.    k2=  5.      PHCOF=  .030           
*******************************************************************************
           JDTDB,            Calendar Date (TDB),                     LT,                     RG,                     RR,
**************************************************************************************************************************
$$SOE
2452421.300000000, A.D. 2002-May-26 19:12:00.0000,  8.530523128633140E-02,  1.477014293626296E+01, -1.676101671529012E-02,
2452515.650000000, A.D. 2002-Aug-29 03:36:00.0000,  7.397761023808994E-02,  1.280882615079220E+01, -1.839330648007214E-02,
2452610.000000000, A.D. 2002-Dec-01 12:00:00.0000,  7.113745361948894E-02,  1.231706827632723E+01,  7.914445237593290E-03,
2452704.350000000, A.D. 2003-Mar-05 20:24:00.0000,  7.620676758241007E-02,  1.319479278034760E+01,  3.779962775139794E-03,
2452798.700000000, A.D. 2003-Jun-08 04:48:00.0000,  7.174591380445609E-02,  1.242241989155026E+01, -1.922933213630406E-02,
2452893.050000000, A.D. 2003-Sep-10 13:12:00.0000,  6.015097176942297E-02,  1.041481791201534E+01, -1.655581375923531E-02,
2452987.400000000, A.D. 2003-Dec-13 21:36:00.0000,  5.843773033625045E-02,  1.011817935338640E+01,  8.666228189408539E-03,
2453081.750000000, A.D. 2004-Mar-17 06:00:00.0000,  6.281403724330213E-02,  1.087591340527760E+01,  9.797941691927835E-04,
2453176.100000000, A.D. 2004-Jun-19 14:24:00.0000,  5.685631109842897E-02,  9.844365100349819E+00, -2.103832094643030E-02,
2453270.450000000, A.D. 2004-Sep-21 22:48:00.0000,  4.506193862050633E-02,  7.802232810036734E+00, -1.567940411232012E-02,
2453364.800000000, A.D. 2004-Dec-25 07:12:00.0000,  4.409626799597085E-02,  7.635032124467233E+00,  9.169974832853055E-03,
2453459.150000000, A.D. 2005-Mar-29 15:36:00.0000,  4.738193745110495E-02,  8.203928155365398E+00, -2.441308561266658E-03,
2453553.500000000, A.D. 2005-Jul-02 00:00:00.0000,  4.019446508317386E-02,  6.959455892363717E+00, -2.200306911072382E-02,
2453647.850000000, A.D. 2005-Oct-04 08:24:00.0000,  2.812967406795747E-02,  4.870502083742601E+00, -1.565656470589781E-02,
2453742.200000000, A.D. 2006-Jan-06 16:48:00.0000,  2.690745562045008E-02,  4.658881519601253E+00,  6.735399868280686E-03,
2453836.550000000, A.D. 2006-Apr-11 01:12:00.0000,  2.843961183920969E-02,  4.924166145297939E+00, -4.753965880360424E-03,
2453930.900000000, A.D. 2006-Jul-14 09:36:00.0000,  2.132650646431586E-02,  3.692570127988781E+00, -1.913216934294040E-02,
2454025.250000000, A.D. 2006-Oct-16 18:00:00.0000,  1.155387263798648E-02,  2.000491033869126E+00, -1.307312041208983E-02,
2454119.600000000, A.D. 2007-Jan-19 02:24:00.0000,  6.918128117296521E-03,  1.197836751662640E+00, -8.313931492536591E-03,
2454213.950000000, A.D. 2007-Apr-23 10:48:00.0000,  4.028328223973351E-03,  6.974834106311411E-01,  1.124998554380028E-02,
2454308.300000000, A.D. 2007-Jul-26 19:12:00.0000,  1.412235324954326E-02,  2.445209665888033E+00,  2.015153876708028E-02,
2454402.650000000, A.D. 2007-Oct-29 03:36:00.0000,  2.392469166069005E-02,  4.142431949434640E+00,  1.435799840770341E-02,
2454497.000000000, A.D. 2008-Jan-31 12:00:00.0000,  2.843574432712539E-02,  4.923496506338740E+00,  2.235532441828262E-03,
2454591.350000000, A.D. 2008-May-04 20:24:00.0000,  2.841754865007497E-02,  4.920346022519586E+00,  7.923069913376052E-04,
2454685.700000000, A.D. 2008-Aug-07 04:48:00.0000,  3.224669974852871E-02,  5.583342982915523E+00,  1.405945211900652E-02,
2454780.050000000, A.D. 2008-Nov-09 13:12:00.0000,  4.141350084097346E-02,  7.170525390864694E+00,  1.599574968122052E-02,
2454874.400000000, A.D. 2009-Feb-11 21:36:00.0000,  4.688185875924118E-02,  8.117342213954432E+00,  3.190245407635380E-03,
2454968.750000000, A.D. 2009-May-17 06:00:00.0000,  4.627257838663899E-02,  8.011848587644602E+00, -2.007622456013699E-03,
2455063.100000000, A.D. 2009-Aug-19 14:24:00.0000,  4.857394079832619E-02,  8.410317137066484E+00,  1.182472089314367E-02,
2455157.450000000, A.D. 2009-Nov-21 22:48:00.0000,  5.716105814322914E-02,  9.897130415480307E+00,  1.591640034503260E-02,
2455251.800000000, A.D. 2010-Feb-24 07:12:00.0000,  6.232645647362461E-02,  1.079149141201276E+01,  1.808033839256071E-03,
2455346.150000000, A.D. 2010-May-29 15:36:00.0000,  6.104452242626299E-02,  1.056953141226973E+01, -2.734599955781503E-03,
2455440.500000000, A.D. 2010-Sep-01 00:00:00.0000,  6.298989893372864E-02,  1.090636291306797E+01,  1.130358133684732E-02,
2455534.850000000, A.D. 2010-Dec-04 08:24:00.0000,  7.141505662676362E-02,  1.236513374705106E+01,  1.532456022807479E-02,
2455629.200000000, A.D. 2011-Mar-08 16:48:00.0000,  7.591241847546329E-02,  1.314382781234731E+01,  3.764331447438401E-04,
2455723.550000000, A.D. 2011-Jun-11 01:12:00.0000,  7.401847368590962E-02,  1.281590143745475E+01, -3.408860143916676E-03,
2455817.900000000, A.D. 2011-Sep-13 09:36:00.0000,  7.612650715354070E-02,  1.318089611787273E+01,  1.222573043708701E-02,
2455912.250000000, A.D. 2011-Dec-16 18:00:00.0000,  8.452421191421297E-02,  1.463491362396606E+01,  1.414567626460975E-02,
2456006.600000000, A.D. 2012-Mar-20 02:24:00.0000,  8.816165463768758E-02,  1.526471730819565E+01, -1.308098747335206E-03,
2456100.950000000, A.D. 2012-Jun-22 10:48:00.0000,  8.578029880244271E-02,  1.485239832683552E+01, -3.029953294516117E-03,
2456195.300000000, A.D. 2012-Sep-24 19:12:00.0000,  8.835671058539674E-02,  1.529849019861268E+01,  1.280574373013281E-02,
2456289.650000000, A.D. 2012-Dec-28 03:36:00.0000,  9.671553198191500E-02,  1.674577525890242E+01,  1.323464887320120E-02,
2456384.000000000, A.D. 2013-Apr-01 12:00:00.0000,  9.936980816879108E-02,  1.720534893429506E+01, -3.223153707437242E-03,
2456478.350000000, A.D. 2013-Jul-04 20:24:00.0000,  9.666830790997609E-02,  1.673759866431317E+01, -2.391025578426525E-03,
2456572.700000000, A.D. 2013-Oct-07 04:48:00.0000,  9.990761732253002E-02,  1.729846770266803E+01,  1.412305763630350E-02,
2456667.050000000, A.D. 2014-Jan-09 13:12:00.0000,  1.081318106407706E-01,  1.872244263379675E+01,  1.127875864828183E-02,
2456761.400000000, A.D. 2014-Apr-13 21:36:00.0000,  1.097337512649947E-01,  1.899981005474396E+01, -4.460994544397670E-03,
2456855.750000000, A.D. 2014-Jul-17 06:00:00.0000,  1.069028510806292E-01,  1.850965488218457E+01, -1.406639616456624E-03,
